ATLAS CENTAUR R/B       
1 06155U 72065B   25335.57649338  .00001184  00000+0  16545-3 0  9997
2 06155  34.9997 160.5882 0034594 265.1904  94.4846 14.77357780826743
SL-8 R/B                
1 08459U 75112B   25335.77016038  .00000297  00000+0  10637-3 0  9999
2 08459  74.0595 199.0347 0016392 311.6233  48.3516 14.38133696617792
SL-3 R/B                
1 10114U 77057B   25335.79446062  .00013376  00000+0  30986-3 0  9997
2 10114  97.5676 138.6993 0006431 278.9122  81.1396 15.42548951653223
SEASAT 1                
1 10967U 78064A   25335.75225970  .00000488  00000+0  17512-3 0  9991
2 10967 108.0097 279.9838 0001919 250.6049 109.4890 14.46040451492355
SL-14 R/B               
1 11267U 79011B   25335.85456603  .00000665  00000+0  63399-4 0  9990
2 11267  82.5242 189.3673 0016857  29.1047 331.1108 14.91748546514195
SL-8 R/B                
1 11574U 79089B   25335.80758470  .00000327  00000+0  10710-3 0  9991
2 11574  74.0689 272.2117 0014506 111.2595 249.0112 14.42270744421995
SL-14 R/B               
1 11672U 80005B   25335.73626477  .00000700  00000+0  68433-4 0  9994
2 11672  82.5158  40.1341 0016999 127.1303 233.1473 14.90769868461891
SL-8 R/B                
1 12139U 81003B   25335.58070950  .00021591  00000+0  57788-3 0  9995
2 12139  82.9303  20.4721 0281136 158.7592 202.5593 15.06511567299886
SL-3 R/B                
1 12465U 81046B   25335.77448941  .00011219  00000+0  28539-3 0  9992
2 12465  81.2345  47.0511 0019660   2.8506 357.2843 15.39259400423351
SL-3 R/B                
1 12904U 81103B   25335.79901194  .00007753  00000+0  35806-3 0  9993
2 12904  81.1584 328.1668 0011164 255.5596 104.4396 15.20022011958350
SL-3 R/B                
1 13068U 82013B   25335.85442632  .00005620  00000+0  25101-3 0  9998
2 13068  81.1742 275.3487 0023570 145.6535 214.6226 15.20924832389475
SL-3 R/B                
1 13154U 82039B   25335.76795716  .00003282  00000+0  20171-3 0  9990
2 13154  81.1735 328.7181 0030485 289.4059  70.3871 15.09418305366869
