CCSDS_OMM_VERS = 2.0
CREATION_DATE  = 
ORIGINATOR     = 

OBJECT_NAME    = ATLAS CENTAUR R/B
OBJECT_ID      = 1972-065B
CENTER_NAME    = EARTH
REF_FRAME      = TEME
TIME_SYSTEM    = UTC
MEAN_ELEMENT_THEORY = SGP/SGP4

EPOCH          = 2025-12-01T13:50:09.028032
MEAN_MOTION    = 14.77357780
ECCENTRICITY   = .0034594
INCLINATION    = 34.9997
RA_OF_ASC_NODE = 160.5882
ARG_OF_PERICENTER = 265.1904
MEAN_ANOMALY   = 94.4846

EPHEMERIS_TYPE = 0
CLASSIFICATION_TYPE = U
NORAD_CAT_ID   = 6155
ELEMENT_SET_NO = 999
REV_AT_EPOCH   = 82674
BSTAR          = .16545E-3
MEAN_MOTION_DOT = .1184E-4
MEAN_MOTION_DDOT = 0

CCSDS_OMM_VERS = 2.0
CREATION_DATE  = 
ORIGINATOR     = 

OBJECT_NAME    = SL-8 R/B
OBJECT_ID      = 1975-112B
CENTER_NAME    = EARTH
REF_FRAME      = TEME
TIME_SYSTEM    = UTC
MEAN_ELEMENT_THEORY = SGP/SGP4

EPOCH          = 2025-12-01T18:29:01.856832
MEAN_MOTION    = 14.38133696
ECCENTRICITY   = .0016392
INCLINATION    = 74.0595
RA_OF_ASC_NODE = 199.0347
ARG_OF_PERICENTER = 311.6233
MEAN_ANOMALY   = 48.3516

EPHEMERIS_TYPE = 0
CLASSIFICATION_TYPE = U
NORAD_CAT_ID   = 8459
ELEMENT_SET_NO = 999
REV_AT_EPOCH   = 61779
BSTAR          = .10637E-3
MEAN_MOTION_DOT = .297E-5
MEAN_MOTION_DDOT = 0

CCSDS_OMM_VERS = 2.0
CREATION_DATE  = 
ORIGINATOR     = 

OBJECT_NAME    = SL-3 R/B
OBJECT_ID      = 1977-057B
CENTER_NAME    = EARTH
REF_FRAME      = TEME
TIME_SYSTEM    = UTC
MEAN_ELEMENT_THEORY = SGP/SGP4

EPOCH          = 2025-12-01T19:04:01.397568
MEAN_MOTION    = 15.42548951
ECCENTRICITY   = .0006431
INCLINATION    = 97.5676
RA_OF_ASC_NODE = 138.6993
ARG_OF_PERICENTER = 278.9122
MEAN_ANOMALY   = 81.1396

EPHEMERIS_TYPE = 0
CLASSIFICATION_TYPE = U
NORAD_CAT_ID   = 10114
ELEMENT_SET_NO = 999
REV_AT_EPOCH   = 65322
BSTAR          = .30986E-3
MEAN_MOTION_DOT = .13376E-3
MEAN_MOTION_DDOT = 0

CCSDS_OMM_VERS = 2.0
CREATION_DATE  = 
ORIGINATOR     = 

OBJECT_NAME    = SEASAT 1
OBJECT_ID      = 1978-064A
CENTER_NAME    = EARTH
REF_FRAME      = TEME
TIME_SYSTEM    = UTC
MEAN_ELEMENT_THEORY = SGP/SGP4

EPOCH          = 2025-12-01T18:03:15.238080
MEAN_MOTION    = 14.46040451
ECCENTRICITY   = .0001919
INCLINATION    = 108.0097
RA_OF_ASC_NODE = 279.9838
ARG_OF_PERICENTER = 250.6049
MEAN_ANOMALY   = 109.4890

EPHEMERIS_TYPE = 0
CLASSIFICATION_TYPE = U
NORAD_CAT_ID   = 10967
ELEMENT_SET_NO = 999
REV_AT_EPOCH   = 49235
BSTAR          = .17512E-3
MEAN_MOTION_DOT = .488E-5
MEAN_MOTION_DDOT = 0

CCSDS_OMM_VERS = 2.0
CREATION_DATE  = 
ORIGINATOR     = 

OBJECT_NAME    = SL-14 R/B
OBJECT_ID      = 1979-011B
CENTER_NAME    = EARTH
REF_FRAME      = TEME
TIME_SYSTEM    = UTC
MEAN_ELEMENT_THEORY = SGP/SGP4

EPOCH          = 2025-12-01T20:30:34.504992
MEAN_MOTION    = 14.91748546
ECCENTRICITY   = .0016857
INCLINATION    = 82.5242
RA_OF_ASC_NODE = 189.3673
ARG_OF_PERICENTER = 29.1047
MEAN_ANOMALY   = 331.1108

EPHEMERIS_TYPE = 0
CLASSIFICATION_TYPE = U
NORAD_CAT_ID   = 11267
ELEMENT_SET_NO = 999
REV_AT_EPOCH   = 51419
BSTAR          = .63399E-4
MEAN_MOTION_DOT = .665E-5
MEAN_MOTION_DDOT = 0

CCSDS_OMM_VERS = 2.0
CREATION_DATE  = 
ORIGINATOR     = 

OBJECT_NAME    = SL-8 R/B
OBJECT_ID      = 1979-089B
CENTER_NAME    = EARTH
REF_FRAME      = TEME
TIME_SYSTEM    = UTC
MEAN_ELEMENT_THEORY = SGP/SGP4

EPOCH          = 2025-12-01T19:22:55.318080
MEAN_MOTION    = 14.42270744
ECCENTRICITY   = .0014506
INCLINATION    = 74.0689
RA_OF_ASC_NODE = 272.2117
ARG_OF_PERICENTER = 111.2595
MEAN_ANOMALY   = 249.0112

EPHEMERIS_TYPE = 0
CLASSIFICATION_TYPE = U
NORAD_CAT_ID   = 11574
ELEMENT_SET_NO = 999
REV_AT_EPOCH   = 42199
BSTAR          = .1071E-3
MEAN_MOTION_DOT = .327E-5
MEAN_MOTION_DDOT = 0

CCSDS_OMM_VERS = 2.0
CREATION_DATE  = 
ORIGINATOR     = 

OBJECT_NAME    = SL-14 R/B
OBJECT_ID      = 1980-005B
CENTER_NAME    = EARTH
REF_FRAME      = TEME
TIME_SYSTEM    = UTC
MEAN_ELEMENT_THEORY = SGP/SGP4

EPOCH          = 2025-12-01T17:40:13.276128
MEAN_MOTION    = 14.90769868
ECCENTRICITY   = .0016999
INCLINATION    = 82.5158
RA_OF_ASC_NODE = 40.1341
ARG_OF_PERICENTER = 127.1303
MEAN_ANOMALY   = 233.1473

EPHEMERIS_TYPE = 0
CLASSIFICATION_TYPE = U
NORAD_CAT_ID   = 11672
ELEMENT_SET_NO = 999
REV_AT_EPOCH   = 46189
BSTAR          = .68433E-4
MEAN_MOTION_DOT = .7E-5
MEAN_MOTION_DDOT = 0

CCSDS_OMM_VERS = 2.0
CREATION_DATE  = 
ORIGINATOR     = 

OBJECT_NAME    = SL-8 R/B
OBJECT_ID      = 1981-003B
CENTER_NAME    = EARTH
REF_FRAME      = TEME
TIME_SYSTEM    = UTC
MEAN_ELEMENT_THEORY = SGP/SGP4

EPOCH          = 2025-12-01T13:56:13.300800
MEAN_MOTION    = 15.06511567
ECCENTRICITY   = .0281136
INCLINATION    = 82.9303
RA_OF_ASC_NODE = 20.4721
ARG_OF_PERICENTER = 158.7592
MEAN_ANOMALY   = 202.5593

EPHEMERIS_TYPE = 0
CLASSIFICATION_TYPE = U
NORAD_CAT_ID   = 12139
ELEMENT_SET_NO = 999
REV_AT_EPOCH   = 29988
BSTAR          = .57788E-3
MEAN_MOTION_DOT = .21591E-3
MEAN_MOTION_DDOT = 0

CCSDS_OMM_VERS = 2.0
CREATION_DATE  = 
ORIGINATOR     = 

OBJECT_NAME    = SL-3 R/B
OBJECT_ID      = 1981-046B
CENTER_NAME    = EARTH
REF_FRAME      = TEME
TIME_SYSTEM    = UTC
MEAN_ELEMENT_THEORY = SGP/SGP4

EPOCH          = 2025-12-01T18:35:15.885024
MEAN_MOTION    = 15.39259400
ECCENTRICITY   = .001966
INCLINATION    = 81.2345
RA_OF_ASC_NODE = 47.0511
ARG_OF_PERICENTER = 2.8506
MEAN_ANOMALY   = 357.2843

EPHEMERIS_TYPE = 0
CLASSIFICATION_TYPE = U
NORAD_CAT_ID   = 12465
ELEMENT_SET_NO = 999
REV_AT_EPOCH   = 42335
BSTAR          = .28539E-3
MEAN_MOTION_DOT = .11219E-3
MEAN_MOTION_DDOT = 0

CCSDS_OMM_VERS = 2.0
CREATION_DATE  = 
ORIGINATOR     = 

OBJECT_NAME    = SL-3 R/B
OBJECT_ID      = 1981-103B
CENTER_NAME    = EARTH
REF_FRAME      = TEME
TIME_SYSTEM    = UTC
MEAN_ELEMENT_THEORY = SGP/SGP4

EPOCH          = 2025-12-01T19:10:34.631616
MEAN_MOTION    = 15.20022011
ECCENTRICITY   = .0011164
INCLINATION    = 81.1584
RA_OF_ASC_NODE = 328.1668
ARG_OF_PERICENTER = 255.5596
MEAN_ANOMALY   = 104.4396

EPHEMERIS_TYPE = 0
CLASSIFICATION_TYPE = U
NORAD_CAT_ID   = 12904
ELEMENT_SET_NO = 999
REV_AT_EPOCH   = 95835
BSTAR          = .35806E-3
MEAN_MOTION_DOT = .7753E-4
MEAN_MOTION_DDOT = 0

CCSDS_OMM_VERS = 2.0
CREATION_DATE  = 
ORIGINATOR     = 

OBJECT_NAME    = SL-3 R/B
OBJECT_ID      = 1982-013B
CENTER_NAME    = EARTH
REF_FRAME      = TEME
TIME_SYSTEM    = UTC
MEAN_ELEMENT_THEORY = SGP/SGP4

EPOCH          = 2025-12-01T20:30:22.434048
MEAN_MOTION    = 15.20924832
ECCENTRICITY   = .002357
INCLINATION    = 81.1742
RA_OF_ASC_NODE = 275.3487
ARG_OF_PERICENTER = 145.6535
MEAN_ANOMALY   = 214.6226

EPHEMERIS_TYPE = 0
CLASSIFICATION_TYPE = U
NORAD_CAT_ID   = 13068
ELEMENT_SET_NO = 999
REV_AT_EPOCH   = 38947
BSTAR          = .25101E-3
MEAN_MOTION_DOT = .562E-4
MEAN_MOTION_DDOT = 0

CCSDS_OMM_VERS = 2.0
CREATION_DATE  = 
ORIGINATOR     = 

OBJECT_NAME    = SL-3 R/B
OBJECT_ID      = 1982-039B
CENTER_NAME    = EARTH
REF_FRAME      = TEME
TIME_SYSTEM    = UTC
MEAN_ELEMENT_THEORY = SGP/SGP4

EPOCH          = 2025-12-01T18:25:51.498624
MEAN_MOTION    = 15.09418305
ECCENTRICITY   = .0030485
INCLINATION    = 81.1735
RA_OF_ASC_NODE = 328.7181
ARG_OF_PERICENTER = 289.4059
MEAN_ANOMALY   = 70.3871

EPHEMERIS_TYPE = 0
CLASSIFICATION_TYPE = U
NORAD_CAT_ID   = 13154
ELEMENT_SET_NO = 999
REV_AT_EPOCH   = 36686
BSTAR          = .20171E-3
MEAN_MOTION_DOT = .3282E-4
MEAN_MOTION_DDOT = 0

